[{"OBJECT_NAME":"TACSAT 6","OBJECT_ID":"2013-072M","EPOCH":"2026-03-09T21:48:18.118656","MEAN_MOTION":15.49411177,"ECCENTRICITY":0.00679094,"INCLINATION":120.4689,"RA_OF_ASC_NODE":89.7096,"ARG_OF_PERICENTER":302.5067,"MEAN_ANOMALY":56.9471,"EPHEMERIS_TYPE":0,"CLASSIFICATION_TYPE":"U","NORAD_CAT_ID":39473,"ELEMENT_SET_NO":999,"REV_AT_EPOCH":10391,"BSTAR":0.0009916056,"MEAN_MOTION_DOT":0.00060565,"MEAN_MOTION_DDOT":0},{"OBJECT_NAME":"STARLINK-1922","OBJECT_ID":"2020-074Q","EPOCH":"2026-03-10T00:00:02.999808","MEAN_MOTION":15.64274627,"ECCENTRICITY":0.00017441,"INCLINATION":53.0458,"RA_OF_ASC_NODE":282.2242,"ARG_OF_PERICENTER":17.2501,"MEAN_ANOMALY":256.8441,"EPHEMERIS_TYPE":0,"CLASSIFICATION_TYPE":"U","NORAD_CAT_ID":46753,"ELEMENT_SET_NO":999,"REV_AT_EPOCH":594,"BSTAR":0.0021356149,"MEAN_MOTION_DOT":0.00212554,"MEAN_MOTION_DDOT":0}]
